0 METEOR 2-8 DEB
1 36357U 82025AT  13273.89799260  .00001271  00000-0  85513-3 0   567
2 36357 082.5363 136.0422 0012510 102.3830 257.8919 13.99911700457475
0 METEOR 2-8 DEB
1 36357U 82025AT  13277.32872498  .00001283  00000-0  86239-3 0   574
2 36357 082.5412 133.2513 0016447 097.9462 262.3543 13.99920838457952
